{
  "type": "FeatureCollection",
  "features": [
    {
      "type": "Feature",
      "properties": {
        "norad_id": 36048,
        "name": "COSMOS 2251 DEB",
        "group": "cosmos-2251-debris",
        "lat": -0.9989398183386354,
        "lon": -71.73711299519452,
        "alt_km": 750.4909289751449,
        "timestamp": "2025-12-18T13:51:50.083094+00:00",
        "meta_object_name": "COSMOS 2251 DEB",
        "meta_object_id": "1993-036AXK",
        "meta_epoch": "2025-12-18T06:13:09.506784",
        "meta_mean_motion": 14.37861852,
        "meta_eccentricity": 0.00268522,
        "meta_inclination": 74.057,
        "meta_ra_of_asc_node": 289.134,
        "meta_arg_of_pericenter": 337.964,
        "meta_mean_anomaly": 172.881,
        "meta_ephemeris_type": 0,
        "meta_classification_type": "U",
        "meta_norad_cat_id": 36048,
        "meta_element_set_no": 999,
        "meta_rev_at_epoch": 85581,
        "meta_bstar": 0.00023437473,
        "meta_mean_motion_dot": 6.84e-06,
        "meta_mean_motion_ddot": 0,
        "tle_line1": "1 36048U 93036AXK 25352.25913781  .00000684  00000+0  23437-3 0  9994",
        "tle_line2": "2 36048  74.0570 289.1340 0026852 337.9640 172.8810 14.37861852855817"
      },
      "geometry": {
        "type": "Point",
        "coordinates": [
          -71.73711299519452,
          -0.9989398183386354
        ]
      }
    },
    {
      "type": "Feature",
      "properties": {
        "norad_id": 36049,
        "name": "COSMOS 2251 DEB",
        "group": "cosmos-2251-debris",
        "lat": -68.88752554818228,
        "lon": -24.1242216063549,
        "alt_km": 689.374334137684,
        "timestamp": "2025-12-18T13:51:50.083105+00:00",
        "meta_object_name": "COSMOS 2251 DEB",
        "meta_object_id": "1993-036AXL",
        "meta_epoch": "2025-12-14T15:06:03.977280",
        "meta_mean_motion": 14.62178283,
        "meta_eccentricity": 0.00106433,
        "meta_inclination": 74.0297,
        "meta_ra_of_asc_node": 115.562,
        "meta_arg_of_pericenter": 202.4764,
        "meta_mean_anomaly": 157.5938,
        "meta_ephemeris_type": 0,
        "meta_classification_type": "U",
        "meta_norad_cat_id": 36049,
        "meta_element_set_no": 999,
        "meta_rev_at_epoch": 85392,
        "meta_bstar": 0.0012373854,
        "meta_mean_motion_dot": 6.209e-05,
        "meta_mean_motion_ddot": 0,
        "tle_line1": "1 36049U 93036AXL 25348.62921270  .00006209  00000+0  12374-2 0  9999",
        "tle_line2": "2 36049  74.0297 115.5620 0010643 202.4764 157.5938 14.62178283853929"
      },
      "geometry": {
        "type": "Point",
        "coordinates": [
          -24.1242216063549,
          -68.88752554818228
        ]
      }
    },
    {
      "type": "Feature",
      "properties": {
        "norad_id": 36050,
        "name": "COSMOS 2251 DEB",
        "group": "cosmos-2251-debris",
        "lat": 59.644346707508255,
        "lon": -148.59108149671417,
        "alt_km": 616.387034278212,
        "timestamp": "2025-12-18T13:51:50.083116+00:00",
        "meta_object_name": "COSMOS 2251 DEB",
        "meta_object_id": "1993-036AXM",
        "meta_epoch": "2025-12-15T21:35:48.459552",
        "meta_mean_motion": 15.01080492,
        "meta_eccentricity": 0.00887608,
        "meta_inclination": 74.0305,
        "meta_ra_of_asc_node": 187.588,
        "meta_arg_of_pericenter": 266.4769,
        "meta_mean_anomaly": 92.6264,
        "meta_ephemeris_type": 0,
        "meta_classification_type": "U",
        "meta_norad_cat_id": 36050,
        "meta_element_set_no": 999,
        "meta_rev_at_epoch": 67082,
        "meta_bstar": 0.00042445305,
        "meta_mean_motion_dot": 5.866e-05,
        "meta_mean_motion_ddot": 0,
        "tle_line1": "1 36050U 93036AXM 25349.89986643  .00005866  00000+0  42445-3 0  9997",
        "tle_line2": "2 36050  74.0305 187.5880 0088760 266.4769  92.6264 15.01080492670823"
      },
      "geometry": {
        "type": "Point",
        "coordinates": [
          -148.59108149671417,
          59.644346707508255
        ]
      }
    },
    {
      "type": "Feature",
      "properties": {
        "norad_id": 36053,
        "name": "COSMOS 2251 DEB",
        "group": "cosmos-2251-debris",
        "lat": 47.32868699202816,
        "lon": -56.81217202745695,
        "alt_km": 680.1481456530337,
        "timestamp": "2025-12-18T13:51:50.083126+00:00",
        "meta_object_name": "COSMOS 2251 DEB",
        "meta_object_id": "1993-036AXQ",
        "meta_epoch": "2025-12-17T02:40:20.863776",
        "meta_mean_motion": 14.57233829,
        "meta_eccentricity": 0.00325437,
        "meta_inclination": 73.8701,
        "meta_ra_of_asc_node": 144.2965,
        "meta_arg_of_pericenter": 91.8963,
        "meta_mean_anomaly": 268.5928,
        "meta_ephemeris_type": 0,
        "meta_classification_type": "U",
        "meta_norad_cat_id": 36053,
        "meta_element_set_no": 999,
        "meta_rev_at_epoch": 87508,
        "meta_bstar": 0.001194595,
        "meta_mean_motion_dot": 5.411e-05,
        "meta_mean_motion_ddot": 0,
        "tle_line1": "1 36053U 93036AXQ 25351.11135259  .00005411  00000+0  11946-2 0  9994",
        "tle_line2": "2 36053  73.8701 144.2965 0032543  91.8963 268.5928 14.57233829875081"
      },
      "geometry": {
        "type": "Point",
        "coordinates": [
          -56.81217202745695,
          47.32868699202816
        ]
      }
    },
    {
      "type": "Feature",
      "properties": {
        "norad_id": 36058,
        "name": "COSMOS 2251 DEB",
        "group": "cosmos-2251-debris",
        "lat": -66.31841281992676,
        "lon": -18.449505814943777,
        "alt_km": 725.3326639864308,
        "timestamp": "2025-12-18T13:51:50.083137+00:00",
        "meta_object_name": "COSMOS 2251 DEB",
        "meta_object_id": "1993-036AXV",
        "meta_epoch": "2025-12-16T09:31:35.831136",
        "meta_mean_motion": 14.58710964,
        "meta_eccentricity": 0.00443273,
        "meta_inclination": 74.0236,
        "meta_ra_of_asc_node": 26.4887,
        "meta_arg_of_pericenter": 159.9009,
        "meta_mean_anomaly": 200.3914,
        "meta_ephemeris_type": 0,
        "meta_classification_type": "U",
        "meta_norad_cat_id": 36058,
        "meta_element_set_no": 999,
        "meta_rev_at_epoch": 66164,
        "meta_bstar": 0.00034845634,
        "meta_mean_motion_dot": 1.618e-05,
        "meta_mean_motion_ddot": 0,
        "tle_line1": "1 36058U 93036AXV 25350.39694249  .00001618  00000+0  34846-3 0  9997",
        "tle_line2": "2 36058  74.0236  26.4887 0044327 159.9009 200.3914 14.58710964661641"
      },
      "geometry": {
        "type": "Point",
        "coordinates": [
          -18.449505814943777,
          -66.31841281992676
        ]
      }
    },
    {
      "type": "Feature",
      "properties": {
        "norad_id": 36060,
        "name": "COSMOS 2251 DEB",
        "group": "cosmos-2251-debris",
        "lat": -18.58145776258177,
        "lon": 49.26543654555954,
        "alt_km": 762.1522024262158,
        "timestamp": "2025-12-18T13:51:50.083267+00:00",
        "meta_object_name": "COSMOS 2251 DEB",
        "meta_object_id": "1993-036AXX",
        "meta_epoch": "2025-12-17T21:57:23.689728",
        "meta_mean_motion": 14.42010986,
        "meta_eccentricity": 0.00154512,
        "meta_inclination": 74.0283,
        "meta_ra_of_asc_node": 224.9692,
        "meta_arg_of_pericenter": 321.2881,
        "meta_mean_anomaly": 38.7166,
        "meta_ephemeris_type": 0,
        "meta_classification_type": "U",
        "meta_norad_cat_id": 36060,
        "meta_element_set_no": 999,
        "meta_rev_at_epoch": 85084,
        "meta_bstar": 0.00025663889,
        "meta_mean_motion_dot": 8.17e-06,
        "meta_mean_motion_ddot": 0,
        "tle_line1": "1 36060U 93036AXX 25351.91485752  .00000817  00000+0  25664-3 0  9994",
        "tle_line2": "2 36060  74.0283 224.9692 0015451 321.2881  38.7166 14.42010986850847"
      },
      "geometry": {
        "type": "Point",
        "coordinates": [
          49.26543654555954,
          -18.58145776258177
        ]
      }
    },
    {
      "type": "Feature",
      "properties": {
        "norad_id": 36061,
        "name": "COSMOS 2251 DEB",
        "group": "cosmos-2251-debris",
        "lat": -26.031550229420837,
        "lon": 177.11958338692466,
        "alt_km": 802.0968550908492,
        "timestamp": "2025-12-18T13:51:50.083279+00:00",
        "meta_object_name": "COSMOS 2251 DEB",
        "meta_object_id": "1993-036AXY",
        "meta_epoch": "2025-12-15T17:55:08.095872",
        "meta_mean_motion": 14.33713146,
        "meta_eccentricity": 0.00367991,
        "meta_inclination": 74.0242,
        "meta_ra_of_asc_node": 354.2562,
        "meta_arg_of_pericenter": 81.2237,
        "meta_mean_anomaly": 279.3079,
        "meta_ephemeris_type": 0,
        "meta_classification_type": "U",
        "meta_norad_cat_id": 36061,
        "meta_element_set_no": 999,
        "meta_rev_at_epoch": 65147,
        "meta_bstar": 0.00027590632,
        "meta_mean_motion_dot": 7.46e-06,
        "meta_mean_motion_ddot": 0,
        "tle_line1": "1 36061U 93036AXY 25349.74662148  .00000746  00000+0  27591-3 0  9991",
        "tle_line2": "2 36061  74.0242 354.2562 0036799  81.2237 279.3079 14.33713146651474"
      },
      "geometry": {
        "type": "Point",
        "coordinates": [
          177.11958338692466,
          -26.031550229420837
        ]
      }
    }
  ]
}